[{"OBJECT_NAME":"LAPAN-A3","OBJECT_ID":"2016-040E","EPOCH":"2026-03-09T23:01:57.724896","MEAN_MOTION":15.3238951,"ECCENTRICITY":0.00109839,"INCLINATION":97.1488,"RA_OF_ASC_NODE":68.4254,"ARG_OF_PERICENTER":22.062,"MEAN_ANOMALY":338.1093,"EPHEMERIS_TYPE":0,"CLASSIFICATION_TYPE":"U","NORAD_CAT_ID":41603,"ELEMENT_SET_NO":999,"REV_AT_EPOCH":53961,"BSTAR":0.00017567445,"MEAN_MOTION_DOT":5.428e-5,"MEAN_MOTION_DDOT":0},{"OBJECT_NAME":"STARLINK-34464","OBJECT_ID":"2025-139A","EPOCH":"2026-03-09T10:33:50.361408","MEAN_MOTION":15.30205407,"ECCENTRICITY":6.866e-5,"INCLINATION":53.1574,"RA_OF_ASC_NODE":128.3623,"ARG_OF_PERICENTER":92.5604,"MEAN_ANOMALY":267.5476,"EPHEMERIS_TYPE":0,"CLASSIFICATION_TYPE":"U","NORAD_CAT_ID":64664,"ELEMENT_SET_NO":999,"REV_AT_EPOCH":4024,"BSTAR":0.0007895388,"MEAN_MOTION_DOT":0.00023101,"MEAN_MOTION_DDOT":0}]
